[{"OBJECT_NAME":"DUBAISAT-2","OBJECT_ID":"2013-066D","EPOCH":"2026-03-09T22:07:51.982752","MEAN_MOTION":15.09361694,"ECCENTRICITY":0.00120191,"INCLINATION":97.4538,"RA_OF_ASC_NODE":61.7474,"ARG_OF_PERICENTER":22.7165,"MEAN_ANOMALY":337.4593,"EPHEMERIS_TYPE":0,"CLASSIFICATION_TYPE":"U","NORAD_CAT_ID":39419,"ELEMENT_SET_NO":999,"REV_AT_EPOCH":67141,"BSTAR":0.00034743884,"MEAN_MOTION_DOT":5.495e-5,"MEAN_MOTION_DDOT":0},{"OBJECT_NAME":"STARLINK-2071","OBJECT_ID":"2021-005N","EPOCH":"2026-03-09T22:04:57.520416","MEAN_MOTION":15.06394576,"ECCENTRICITY":0.00015465,"INCLINATION":53.0554,"RA_OF_ASC_NODE":30.5881,"ARG_OF_PERICENTER":94.5913,"MEAN_ANOMALY":265.5253,"EPHEMERIS_TYPE":0,"CLASSIFICATION_TYPE":"U","NORAD_CAT_ID":47361,"ELEMENT_SET_NO":999,"REV_AT_EPOCH":28349,"BSTAR":-5.0651256e-5,"MEAN_MOTION_DOT":-1.036e-5,"MEAN_MOTION_DDOT":0}]
